ONEWEB-0613             
1 56071U 23043AB  23361.75879224  .00000102  00000+0  23781-3 0  9996
2 56071  87.9006  78.8514 0001894 119.2138 240.9182 13.15550356 37786
ONEWEB-0630             
1 56072U 23043AC  23361.75404199  .00000150  00000+0  36538-3 0  9999
2 56072  87.9002  78.8492 0002022 116.1185 244.0153 13.15547450 37773
ONEWEB-0632             
1 56073U 23043AD  23361.74928897  .00000175  00000+0  43046-3 0  9994
2 56073  87.9002  78.8685 0001371 113.8489 246.2785 13.15547258 37776
ONEWEB-0633             
1 56074U 23043AE  23361.74295070  .00000168  00000+0  41115-3 0  9992
2 56074  87.8995  78.8575 0002257 115.4930 244.6434 13.15547935 37751
ONEWEB-0634             
1 56075U 23043AF  23361.72867498 -.00010767  00000+0 -28647-1 0  9991
2 56075  87.9002  78.8603 0002034  94.3823 265.7540 13.15600505 37747
ONEWEB-0635             
1 56076U 23043AG  23361.72392139 -.00000151  00000+0 -43618-3 0  9990
2 56076  87.9000  78.9209 0001286 112.0348 248.0918 13.15545585 37779
ONEWEB-0636             
1 56077U 23043AH  23361.71601468 -.00000035  00000+0 -12812-3 0  9991
2 56077  87.9000  78.8911 0001298 103.8531 256.2744 13.15547759 37755
ONEWEB-0637             
1 56078U 23043AJ  23361.78573166 -.00000063  00000+0 -20247-3 0  9994
2 56078  87.9002  78.8517 0001239 108.2323 251.8943 13.15549886 37781
